1 38857U 12055A   18202.13287018  .00000051  00000-0  00000+0 0  9992
2 38857  54.9129 181.0026 0005163 261.9747  97.9443  1.70473799 35924
1 38857U 12055A   18202.71945240  .00000049  00000-0  00000-0 0  9992
2 38857  54.9129 180.9864 0005160 261.9459  97.9724  1.70473813 35939
1 38857U 12055A   18205.06577359  .00000037  00000-0  00000-0 0  9992
2 38857  54.9130 180.9218 0005104 262.0221  97.8886  1.70473847 35970
1 38857U 12055A   18208.58525138  .00000031  00000-0  00000-0 0  9994
2 38857  54.9131 180.8249 0005039 262.0135  97.8832  1.70473880 36031
1 38857U 12055A   18210.34499987  .00000036  00000-0  00000-0 0  9998
2 38857  54.9131 180.7763 0005021 262.0736  97.8223  1.70473879 36064
1 38857U 12055A   18212.10475865  .00000043  00000-0  00000+0 0  9990
2 38857  54.9131 180.7278 0004975 262.2243  97.6768  1.70473856 36097
1 38857U 12055A   18212.69134640  .00000045  00000-0  00000-0 0  9990
2 38857  54.9132 180.7116 0004965 262.2174  97.6864  1.70473850 36104
1 38857U 12055A   18213.86452322  .00000051  00000-0  00000-0 0  9997
2 38857  54.9132 180.6793 0004926 262.3434  97.5664  1.70473826 36123
1 38857U 12055A   18215.03769909  .00000056  00000-0  00000+0 0  9994
2 38857  54.9132 180.6469 0004903 262.3833  97.5321  1.70473804 36149
1 38857U 12055A   18217.38403845  .00000056  00000-0  00000-0 0  9999
2 38857  54.9131 180.5822 0004845 262.6364  97.2823  1.70473751 36186
1 38857U 12055A   18217.38403848  .00000056  00000-0  00000+0 0  9991
2 38857  54.9131 180.5821 0004842 262.6694  97.2494  1.70473751 36182
1 38857U 12055A   18217.97061960  .00000053  00000-0  00000-0 0  9999
2 38857  54.9131 180.5659 0004834 262.6707  97.2465  1.70473738 36191
1 38857U 12055A   18219.14377786  .00000044  00000-0  00000-0 0  9996
2 38857  54.9130 180.5336 0004792 262.8879  97.0240  1.70473715 36214
1 38857U 12055A   18219.73035557  .00000038  00000-0  00000+0 0  9990
2 38857  54.9131 180.5174 0004784 262.8696  97.0387  1.70473714 36225
1 38857U 12055A   18221.49008836  .00000021  00000-0  00000-0 0  9999
2 38857  54.9131 180.4687 0004727 263.0020  96.8955  1.70473704 36254
1 38857U 12055A   18222.07666772  .00000016  00000-0  00000+0 0  9996
2 38857  54.9131 180.4525 0004704 263.0552  96.8397  1.70473702 36269
1 38857U 12055A   18223.24983060  .00000010  00000-0  00000-0 0  9993
2 38857  54.9131 180.4201 0004662 263.1109  96.7816  1.70473708 36285
1 38857U 12055A   18224.42300034  .00000009  00000-0  00000-0 0  9996
2 38857  54.9132 180.3878 0004626 263.1660  96.7280  1.70473717 36305
1 38857U 12055A   18225.59617537  .00000011  00000-0  00000-0 0  9997
2 38857  54.9132 180.3554 0004600 263.2571  96.6418  1.70473729 36327
1 38857U 12055A   18226.18276429  .00000012  00000-0  00000-0 0  9995
2 38857  54.9132 180.3392 0004576 263.2706  96.6316  1.70473745 36335
1 38857U 12055A   18226.76935341  .00000013  00000-0  00000+0 0  9994
2 38857  54.9132 180.3230 0004561 263.3014  96.6042  1.70473755 36341
1 38857U 12055A   18227.35594220  .00000014  00000-0  00000-0 0  9999
2 38857  54.9132 180.3068 0004543 263.3114  96.5975  1.70473767 36359
1 38857U 12055A   18229.70228919  .00000009  00000-0  00000+0 0  9992
2 38857  54.9132 180.2421 0004485 263.4361  96.4807  1.70473805 36391
1 38857U 12055A   18229.70228960  .00000009  00000-0  00000-0 0  9999
2 38857  54.9131 180.2421 0004473 263.4432  96.4738  1.70473812 36397
1 38857U 12055A   18232.04862064 -.00000003  00000-0  00000+0 0  9993
2 38857  54.9129 180.1774 0004383 263.4493  96.4661  1.70473849 36431
1 38857U 12055A   18234.39494540 -.00000010  00000-0  00000+0 0  9991
2 38857  54.9129 180.1127 0004303 263.3122  96.5977  1.70473880 36473
1 38857U 12055A   18235.56811025 -.00000010  00000-0  00000-0 0  9993
2 38857  54.9129 180.0804 0004272 263.2895  96.6193  1.70473886 36494
1 38857U 12055A   18236.74127870 -.00000007  00000-0  00000+0 0  9997
2 38857  54.9128 180.0481 0004242 263.2865  96.6232  1.70473887 36516
1 38857U 12055A   18237.32786453 -.00000006  00000-0  00000-0 0  9990
2 38857  54.9128 180.0319 0004224 263.2932  96.6180  1.70473885 36522
1 38857U 12055A   18238.50103964 -.00000001  00000-0  00000-0 0  9996
2 38857  54.9128 179.9996 0004179 263.3096  96.6068  1.70473873 36545
1 38857U 12055A   18239.08762834  .00000002  00000-0  00000+0 0  9996
2 38857  54.9128 179.9834 0004164 263.3299  96.5899  1.70473868 36551
1 38857U 12055A   18239.67421795  .00000005  00000-0  00000-0 0  9993
2 38857  54.9128 179.9673 0004139 263.3564  96.5672  1.70473862 36563
1 38857U 12055A   18243.19375779  .00000021  00000-0  00000+0 0  9992
2 38857  54.9127 179.8702 0003998 263.4265  96.5211  1.70473781 36621
1 38857U 12055A   18243.78034452  .00000022  00000-0  00000-0 0  9999
2 38857  54.9127 179.8540 0003991 263.4115  96.5383  1.70473774 36631
1 38857U 12055A   18243.78034463  .00000022  00000-0  00000-0 0  9991
2 38857  54.9127 179.8540 0003988 263.4301  96.5197  1.70473772 36635
1 38857U 12055A   18244.95351432  .00000020  00000-0  00000-0 0  9997
2 38857  54.9126 179.8217 0003946 263.5549  96.3966  1.70473747 36650
1 38857U 12055A   18246.12667801  .00000013  00000-0  00000+0 0  9999
2 38857  54.9125 179.7894 0003901 263.6808  96.2688  1.70473732 36675
1 38857U 12055A   18247.88641693 -.00000002  00000-0  00000-0 0  9994
2 38857  54.9124 179.7407 0003842 263.7074  96.2351  1.70473713 36704
1 38857U 12055A   18251.40591376 -.00000020  00000-0  00000+0 0  9998
2 38857  54.9124 179.6435 0003688 263.7627  96.1775  1.70473720 36769
1 38857U 12055A   18251.99250181 -.00000019  00000-0  00000-0 0  9997
2 38857  54.9124 179.6274 0003668 263.8304  96.1126  1.70473729 36771
1 38857U 12055A   18253.75227191 -.00000014  00000-0  00000+0 0  9992
2 38857  54.9123 179.5788 0003610 263.7830  96.1721  1.70473751 36809
1 38857U 12055A   18253.75227191 -.00000014  00000-0  00000-0 0  9993
2 38857  54.9123 179.5788 0003610 263.7830  96.1721  1.70473751 36809
1 38857U 12055A   18254.33886281 -.00000013  00000-0  00000-0 0  9998
2 38857  54.9123 179.5626 0003584 263.7620  96.1976  1.70473765 36815
1 38857U 12055A   18256.68521852 -.00000014  00000-0  00000+0 0  9998
2 38857  54.9121 179.4979 0003495 263.7317  96.2412  1.70473817 36855
1 38857U 12055A   18259.03155697 -.00000024  00000-0  00000+0 0  9991
2 38857  54.9120 179.4331 0003394 263.5572  96.4188  1.70473863 36892
1 38857U 12055A   18260.79130351 -.00000029  00000-0  00000-0 0  9992
2 38857  54.9120 179.3845 0003340 263.4375  96.5367  1.70473888 36923
1 38857U 12055A   18260.79130384 -.00000029  00000-0  00000-0 0  9998
2 38857  54.9119 179.3845 0003324 263.3455  96.6289  1.70473892 36920
1 38857U 12055A   18262.55105316 -.00000028  00000-0  00000+0 0  9999
2 38857  54.9118 179.3360 0003254 263.0774  96.8967  1.70473915 36958
1 38857U 12055A   18263.13763771 -.00000027  00000-0  00000-0 0  9999
2 38857  54.9118 179.3199 0003235 263.0085  96.9664  1.70473917 36960
1 38857U 12055A   18264.31080938 -.00000022  00000-0  00000-0 0  9992
2 38857  54.9118 179.2875 0003201 262.9739  97.0041  1.70473921 36985
1 38857U 12055A   18267.83034714 -.00000000  00000-0  00000-0 0  9999
2 38857  54.9116 179.1904 0003082 262.6841  97.3176  1.70473887 37044
1 38857U 12055A   18270.17671021  .00000014  00000-0  00000+0 0  9991
2 38857  54.9116 179.1257 0002982 262.5408  97.4791  1.70473832 37089
1 38857U 12055A   18271.34988579  .00000017  00000-0  00000-0 0  9994
2 38857  54.9115 179.0933 0002944 262.5036  97.5218  1.70473800 37106
1 38857U 12055A   18271.93647105  .00000017  00000-0  00000-0 0  9996
2 38857  54.9115 179.0771 0002927 262.5028  97.5238  1.70473791 37110
1 38857U 12055A   18273.10963730  .00000014  00000-0  00000+0 0  9998
2 38857  54.9114 179.0447 0002886 262.4793  97.5471  1.70473768 37136
1 38857U 12055A   18274.86937852  .00000003  00000-0  00000-0 0  9997
2 38857  54.9114 178.9961 0002817 262.4407  97.5804  1.70473746 37160
1 38857U 12055A   18276.04253861 -.00000006  00000-0  00000+0 0  9993
2 38857  54.9115 178.9639 0002772 262.4439  97.5731  1.70473740 37183
1 38857U 12055A   18277.21570283 -.00000012  00000-0  00000-0 0  9991
2 38857  54.9114 178.9314 0002716 262.3611  97.6542  1.70473732 37206
1 38857U 12055A   18281.32181938 -.00000002  00000-0  00000+0 0  9991
2 38857  54.9115 178.8180 0002574 261.9388  98.0966  1.70473770 37279
1 38857U 12055A   18283.08158860  .00000002  00000-0  00000-0 0  9994
2 38857  54.9115 178.7695 0002504 261.6546  98.3923  1.70473803 37302
1 38857U 12055A   18285.42793190 -.00000003  00000-0  00000+0 0  9996
2 38857  54.9115 178.7047 0002407 261.1556  98.8972  1.70473857 37343
1 38857U 12055A   18285.42793190 -.00000003  00000-0  00000-0 0  9997
2 38857  54.9115 178.7047 0002407 261.1556  98.8972  1.70473857 37343
1 38857U 12055A   18286.60109698 -.00000007  00000-0  00000-0 0  9996
2 38857  54.9114 178.6723 0002362 260.8538  99.1982  1.70473882 37363
1 38857U 12055A   18287.77426030 -.00000009  00000-0  00000+0 0  9998
2 38857  54.9114 178.6399 0002318 260.4540  99.5962  1.70473905 37382
1 38857U 12055A   18288.94742383 -.00000009  00000-0  00000-0 0  9991
2 38857  54.9115 178.6076 0002283 260.1013  99.9471  1.70473924 37401
1 38857U 12055A   18290.12058912 -.00000005  00000-0  00000+0 0  9997
2 38857  54.9115 178.5752 0002256 259.8164 100.2316  1.70473946 37423
1 38857U 12055A   18290.70717331 -.00000003  00000-0  00000-0 0  9997
2 38857  54.9115 178.5590 0002238 259.6274 100.4212  1.70473951 37437
1 38857U 12055A   18292.46693183  .00000008  00000-0  00000+0 0  9993
2 38857  54.9116 178.5104 0002182 259.2452 100.8088  1.70473952 37460
1 38857U 12055A   18292.46693215  .00000008  00000-0  00000-0 0  9990
2 38857  54.9116 178.5105 0002176 259.1600 100.8941  1.70473949 37462
1 38857U 12055A   18293.64010889  .00000017  00000-0  00000-0 0  9991
2 38857  54.9116 178.4781 0002144 259.0025 101.0580  1.70473942 37483
